start=new Date('2022-01-23T00:00:00.000Z').valueOf();
sats=[{"RCS_SIZE":"LARGE","TLE_LINE2":"2 50848  53.2175 119.7389 0001088  62.7192 262.7803 15.75470476  3830","NORAD_CAT_ID":"50848","REF_FRAME":"TEME","OBJECT_TYPE":"PAYLOAD","MEAN_ANOMALY":"262.7803","EPOCH":"2022-01-22T22:00:00.999936","INCLINATION":"53.2175","LAUNCH_DATE":"2022-01-06","ECCENTRICITY":"0.00010880","SEMIMAJOR_AXIS":"6721.430","ARG_OF_PERICENTER":"62.7192","TIME_SYSTEM":"UTC","GP_ID":"194403721","MEAN_MOTION_DDOT":"0.0000000000000","DECAY_DATE":null,"BSTAR":"-0.00583590000000","TLE_LINE1":"1 50848U 22001AX  22022.91667824 -.00821288  00000-0 -58359-2 0  9994","MEAN_ELEMENT_THEORY":"SGP4","PERIAPSIS":"342.563","OBJECT_ID":"2022-001AX","APOAPSIS":"344.026","CLASSIFICATION_TYPE":"U","CENTER_NAME":"EARTH","REV_AT_EPOCH":"383","MEAN_MOTION":"15.75470476","COUNTRY_CODE":"US","MEAN_MOTION_DOT":"-0.00821288","RA_OF_ASC_NODE":"119.7389","FILE":"3280301","ELEMENT_SET_NO":"999","SITE":"AFETR","EPHEMERIS_TYPE":"0","OBJECT_NAME":"STARLINK-3315","PERIOD":"91.401"},{"ECCENTRICITY":"0.00010290","RCS_SIZE":"LARGE","TLE_LINE2":"2 50849  53.2175 119.7426 0001029  75.5314 248.1991 15.75438376  3756","REF_FRAME":"TEME","NORAD_CAT_ID":"50849","MEAN_ANOMALY":"248.1991","OBJECT_TYPE":"PAYLOAD","INCLINATION":"53.2175","EPOCH":"2022-01-22T22:00:00.999936","LAUNCH_DATE":"2022-01-06","DECAY_DATE":null,"MEAN_MOTION_DDOT":"0.0000000000000","BSTAR":"-0.00584290000000","TLE_LINE1":"1 50849U 22001AY  22022.91667824 -.00821110  00000-0 -58429-2 0  9997","PERIAPSIS":"342.694","MEAN_ELEMENT_THEORY":"SGP4","SEMIMAJOR_AXIS":"6721.521","ARG_OF_PERICENTER":"75.5314","TIME_SYSTEM":"UTC","GP_ID":"194403558","MEAN_MOTION":"15.75438376","COUNTRY_CODE":"US","MEAN_MOTION_DOT":"-0.00821110","RA_OF_ASC_NODE":"119.7426","APOAPSIS":"344.078","OBJECT_ID":"2022-001AY","CLASSIFICATION_TYPE":"U","CENTER_NAME":"EARTH","REV_AT_EPOCH":"375","OBJECT_NAME":"STARLINK-3311","PERIOD":"91.403","FILE":"3280301","ELEMENT_SET_NO":"999","SITE":"AFETR","EPHEMERIS_TYPE":"0"},{"ARG_OF_PERICENTER":"57.0359","SEMIMAJOR_AXIS":"6721.379","GP_ID":"194403714","TIME_SYSTEM":"UTC","TLE_LINE1":"1 50850U 22001AZ  22022.91667824 -.00821421  00000-0 -58323-2 0  9997","BSTAR":"-0.00583230000000","DECAY_DATE":null,"MEAN_MOTION_DDOT":"0.0000000000000","PERIAPSIS":"342.486","MEAN_ELEMENT_THEORY":"SGP4","REF_FRAME":"TEME","NORAD_CAT_ID":"50850","TLE_LINE2":"2 50850  53.2175 119.7364 0001129  57.0359 269.6591 15.75488162  3835","RCS_SIZE":"LARGE","LAUNCH_DATE":"2022-01-06","INCLINATION":"53.2175","EPOCH":"2022-01-22T22:00:00.999936","OBJECT_TYPE":"PAYLOAD","MEAN_ANOMALY":"269.6591","ECCENTRICITY":"0.00011290","SITE":"AFETR","ELEMENT_SET_NO":"999","FILE":"3280301","EPHEMERIS_TYPE":"0","OBJECT_NAME":"STARLINK-3312","PERIOD":"91.400","CENTER_NAME":"EARTH","CLASSIFICATION_TYPE":"U","OBJECT_ID":"2022-001AZ","APOAPSIS":"344.003","REV_AT_EPOCH":"383","COUNTRY_CODE":"US","MEAN_MOTION":"15.75488162","RA_OF_ASC_NODE":"119.7364","MEAN_MOTION_DOT":"-0.00821421"},{"MEAN_ELEMENT_THEORY":"SGP4","PERIAPSIS":"342.571","TLE_LINE1":"1 50851U 22001BA  22022.91667824 -.00820984  00000-0 -58309-2 0  9995","BSTAR":"-0.00583090000000","DECAY_DATE":null,"MEAN_MOTION_DDOT":"0.0000000000000","GP_ID":"194403565","TIME_SYSTEM":"UTC","ARG_OF_PERICENTER":"76.8381","SEMIMAJOR_AXIS":"6721.399","ECCENTRICITY":"0.00010320","LAUNCH_DATE":"2022-01-06","EPOCH":"2022-01-22T22:00:00.999936","INCLINATION":"53.2175","MEAN_ANOMALY":"249.2497","OBJECT_TYPE":"PAYLOAD","NORAD_CAT_ID":"50851","REF_FRAME":"TEME","TLE_LINE2":"2 50851  53.2175 119.7377 0001032  76.8381 249.2497 15.75481145  3807","RCS_SIZE":"LARGE","PERIOD":"91.401","OBJECT_NAME":"STARLINK-3314","EPHEMERIS_TYPE":"0","SITE":"AFETR","ELEMENT_SET_NO":"999","FILE":"3280301","RA_OF_ASC_NODE":"119.7377","MEAN_MOTION_DOT":"-0.00820984","COUNTRY_CODE":"US","MEAN_MOTION":"15.75481145","REV_AT_EPOCH":"380","CENTER_NAME":"EARTH","CLASSIFICATION_TYPE":"U","APOAPSIS":"343.958","OBJECT_ID":"2022-001BA"}];
